COMMENT,ORIGINATOR,NORAD_CAT_ID,OBJECT_NAME,OBJECT_TYPE,CLASSIFICATION_TYPE,INTLDES,EPOCH,EPOCH_MICROSECONDS,MEAN_MOTION,ECCENTRICITY,INCLINATION,RA_OF_ASC_NODE,ARG_OF_PERICENTER,MEAN_ANOMALY,EPHEMERIS_TYPE,ELEMENT_SET_NO,REV_AT_EPOCH,BSTAR,MEAN_MOTION_DOT,MEAN_MOTION_DDOT,FILE,TLE_LINE0,TLE_LINE1,TLE_LINE2,OBJECT_ID,OBJECT_NUMBER,SEMIMAJOR_AXIS,PERIOD,APOGEE,PERIGEE,DECAYED
"GENERATED VIA SPACETRACK.ORG API","18 SPCS","51110","STARLINK-3344","PAYLOAD","U","22005G","2022-08-24 11:56:49","895808","15.08837484","0.0001604","53.2179","334.4981","49.6411","310.4721","0","999","3476","0.00011791","0.00001589","0","3546202","0 STARLINK-3344","1 51110U 22005G   22236.49779972  .00001589  00000-0  11791-3 0  9991","2 51110  53.2179 334.4981 0001604  49.6411 310.4721 15.08837484 34761","2022-005G","51110","6917.888","95.438","540.863","538.643","0"
"GENERATED VIA SPACETRACK.ORG API","18 SPCS","51110","STARLINK-3344","PAYLOAD","U","22005G","2022-08-24 11:56:49","895808","15.08837484","0.0001604","53.2179","334.4981","49.6411","310.4721","0","999","3365","0.00011791","0.00001589","0","3546350","0 STARLINK-3344","1 51110U 22005G   22236.49779972  .00001589  00000-0  11791-3 0  9991","2 51110  53.2179 334.4981 0001604  49.6411 310.4721 15.08837484 33658","2022-005G","51110","6917.888","95.438","540.863","538.643","0"
"GENERATED VIA SPACETRACK.ORG API","18 SPCS","51110","STARLINK-3344","PAYLOAD","U","22005G","2022-08-24 13:32:13","3296","15.08838148","0.0001606","53.2179","334.2007","49.6095","310.5037","0","999","3366","0.00012182","0.00001651","0","3546663","0 STARLINK-3344","1 51110U 22005G   22236.56403939  .00001651  00000-0  12182-3 0  9991","2 51110  53.2179 334.2007 0001606  49.6095 310.5037 15.08838148 33665","2022-005G","51110","6917.886","95.438","540.862","538.640","0"
"GENERATED VIA SPACETRACK.ORG API","18 SPCS","51110","STARLINK-3344","PAYLOAD","U","22005G","2022-08-25 10:12:13","900032","15.08839138","0.0001632","53.2178","330.3351","50.8224","309.2913","0","999","3379","0.000049939","0.00000507","0","3547226","0 STARLINK-3344","1 51110U 22005G   22237.42516088  .00000507  00000-0  49939-4 0  9997","2 51110  53.2178 330.3351 0001632  50.8224 309.2913 15.08839138 33792","2022-005G","51110","6917.883","95.438","540.877","538.619","0"
"GENERATED VIA SPACETRACK.ORG API","18 SPCS","51110","STARLINK-3344","PAYLOAD","U","22005G","2022-08-25 14:58:23","308032","15.08839262","0.0001648","53.2177","329.443","50.6548","309.459","0","999","3493","0.000046754","0.00000456","0","3547448","0 STARLINK-3344","1 51110U 22005G   22237.62388088  .00000456  00000-0  46754-4 0  9991","2 51110  53.2177 329.4430 0001648  50.6548 309.4590 15.08839262 34930","2022-005G","51110","6917.883","95.438","540.888","538.608","0"
"GENERATED VIA SPACETRACK.ORG API","18 SPCS","51110","STARLINK-3344","PAYLOAD","U","22005G","2022-08-25 14:58:23","308032","15.08839262","0.0001648","53.2177","329.443","50.6548","309.459","0","999","3382","0.000046754","0.00000456","0","3547674","0 STARLINK-3344","1 51110U 22005G   22237.62388088  .00000456  00000-0  46754-4 0  9991","2 51110  53.2177 329.4430 0001648  50.6548 309.4590 15.08839262 33827","2022-005G","51110","6917.883","95.438","540.888","538.608","0"
"GENERATED VIA SPACETRACK.ORG API","18 SPCS","51110","STARLINK-3344","PAYLOAD","U","22005G","2022-08-26 10:03:00","375840","15.08847069","0.0001685","53.2176","325.8744","50.2325","309.8815","0","999","3505","0.000038932","0.00000332","0","3548265","0 STARLINK-3344","1 51110U 22005G   22238.41875435  .00000332  00000-0  38932-4 0  9998","2 51110  53.2176 325.8744 0001685  50.2325 309.8815 15.08847069 35059","2022-005G","51110","6917.859","95.437","540.889","538.558","0"
"GENERATED VIA SPACETRACK.ORG API","18 SPCS","51110","STARLINK-3344","PAYLOAD","U","22005G","2022-08-26 10:03:00","375840","15.08847069","0.0001685","53.2176","325.8744","50.2325","309.8815","0","999","3394","0.000038932","0.00000332","0","3548418","0 STARLINK-3344","1 51110U 22005G   22238.41875435  .00000332  00000-0  38932-4 0  9998","2 51110  53.2176 325.8744 0001685  50.2325 309.8815 15.08847069 33945","2022-005G","51110","6917.859","95.437","540.889","538.558","0"
"GENERATED VIA SPACETRACK.ORG API","18 SPCS","51110","STARLINK-3344","PAYLOAD","U","22005G","2022-08-26 16:24:33","638688","15.08836789","0.0001819","53.2175","324.6849","47.8545","312.2602","0","999","3509","-0.000049392","-0.00001074","0","3548578","0 STARLINK-3344","1 51110U 22005G   22238.68372267 -.00001074  00000-0 -49392-4 0  9990","2 51110  53.2175 324.6849 0001819  47.8545 312.2602 15.08836789 35099","2022-005G","51110","6917.890","95.438","541.014","538.497","0"
"GENERATED VIA SPACETRACK.ORG API","18 SPCS","51110","STARLINK-3344","PAYLOAD","U","22005G","2022-08-26 16:24:33","638688","15.08836789","0.0001819","53.2175","324.6849","47.8545","312.2602","0","999","3398","-0.000049392","-0.00001074","0","3548620","0 STARLINK-3344","1 51110U 22005G   22238.68372267 -.00001074  00000-0 -49392-4 0  9990","2 51110  53.2175 324.6849 0001819  47.8545 312.2602 15.08836789 33985","2022-005G","51110","6917.890","95.438","541.014","538.497","0"
"GENERATED VIA SPACETRACK.ORG API","18 SPCS","51110","STARLINK-3344","PAYLOAD","U","22005G","2022-08-27 11:29:11","117760","15.08837168","0.0001673","53.2174","321.1164","49.4823","310.6314","0","999","3410","0.000015753","-0.00000037","0","3548622","0 STARLINK-3344","1 51110U 22005G   22239.47860090 -.00000037  00000-0  15753-4 0  9995","2 51110  53.2174 321.1164 0001673  49.4823 310.6314 15.08837168 34100","2022-005G","51110","6917.889","95.438","540.911","538.597","0"
"GENERATED VIA SPACETRACK.ORG API","18 SPCS","51110","STARLINK-3344","PAYLOAD","U","22005G","2022-08-27 14:39:57","316320","15.08838403","0.000168","53.2174","320.5217","49.733","310.3808","0","999","3412","0.000025772","0.00000122","0","3548882","0 STARLINK-3344","1 51110U 22005G   22239.61108005  .00000122  00000-0  25772-4 0  9998","2 51110  53.2174 320.5217 0001680  49.7330 310.3808 15.08838403 34126","2022-005G","51110","6917.885","95.438","540.912","538.588","0"
"GENERATED VIA SPACETRACK.ORG API","18 SPCS","51110","STARLINK-3344","PAYLOAD","U","22005G","2022-08-28 04:58:25","75488","15.08845439","0.0001671","53.2174","317.8451","49.0917","311.0219","0","999","3532","0.000047654","0.00000471","0","3549108","0 STARLINK-3344","1 51110U 22005G   22240.20723467  .00000471  00000-0  47654-4 0  9990","2 51110  53.2174 317.8451 0001671  49.0917 311.0219 15.08845439 35323","2022-005G","51110","6917.864","95.437","540.885","538.573","0"
"GENERATED VIA SPACETRACK.ORG API","18 SPCS","51110","STARLINK-3344","PAYLOAD","U","22005G","2022-08-28 12:55:20","213760","15.08858124","0.0001756","53.2172","316.3585","66.7853","293.3324","0","999","3426","-0.000029935","-0.00000765","0","3549654","0 STARLINK-3344","1 51110U 22005G   22240.53842840 -.00000765  00000-0 -29935-4 0  9993","2 51110  53.2172 316.3585 0001756  66.7853 293.3324 15.08858124 34268","2022-005G","51110","6917.825","95.436","540.905","538.475","0"
"GENERATED VIA SPACETRACK.ORG API","18 SPCS","51110","STARLINK-3344","PAYLOAD","U","22005G","2022-08-28 14:30:43","952832","15.0883092","0.0001893","53.2172","316.0612","63.8796","296.2391","0","999","3427","0.00036127","0.00005465","0","3550014","0 STARLINK-3344","1 51110U 22005G   22240.60467538  .00005465  00000-0  36127-3 0  9998","2 51110  53.2172 316.0612 0001893  63.8796 296.2391 15.08830920 34273","2022-005G","51110","6917.908","95.438","541.083","538.464","0"
"GENERATED VIA SPACETRACK.ORG API","18 SPCS","51110","STARLINK-3344","PAYLOAD","U","22005G","2022-08-28 14:30:43","952832","15.0883092","0.0001893","53.2172","316.0612","63.8796","296.2391","0","999","3538","0.00036127","0.00005465","0","3550180","0 STARLINK-3344","1 51110U 22005G   22240.60467538  .00005465  00000-0  36127-3 0  9998","2 51110  53.2172 316.0612 0001893  63.8796 296.2391 15.08830920 35386","2022-005G","51110","6917.908","95.438","541.083","538.464","0"
"GENERATED VIA SPACETRACK.ORG API","18 SPCS","51110","STARLINK-3344","PAYLOAD","U","22005G","2022-08-29 11:10:44","822784","15.08839562","0.0001579","53.2173","312.1952","51.4427","308.6707","0","999","3440","0.000054795","0.00000584","0","3550737","0 STARLINK-3344","1 51110U 22005G   22241.46579656  .00000584  00000-0  54795-4 0  9997","2 51110  53.2173 312.1952 0001579  51.4427 308.6707 15.08839562 34408","2022-005G","51110","6917.882","95.438","540.839","538.654","0"
"GENERATED VIA SPACETRACK.ORG API","18 SPCS","51110","STARLINK-3344","PAYLOAD","U","22005G","2022-08-29 14:21:31","52448","15.08840234","0.0001586","53.2173","311.6005","51.4209","308.6925","0","999","3442","0.000057406","0.00000626","0","3551093","0 STARLINK-3344","1 51110U 22005G   22241.59827607  .00000626  00000-0  57406-4 0  9992","2 51110  53.2173 311.6005 0001586  51.4209 308.6925 15.08840234 34429","2022-005G","51110","6917.880","95.438","540.842","538.647","0"
"GENERATED VIA SPACETRACK.ORG API","18 SPCS","51110","STARLINK-3344","PAYLOAD","U","22005G","2022-08-29 22:18:26","603712","15.0884526","0.0001618","53.2172","310.1141","50.5271","309.5864","0","999","3558","0.000089693","0.0000114","0","3551421","0 STARLINK-3344","1 51110U 22005G   22241.92947458  .00001140  00000-0  89693-4 0  9991","2 51110  53.2172 310.1141 0001618  50.5271 309.5864 15.08845260 35582","2022-005G","51110","6917.864","95.437","540.849","538.610","0"
"GENERATED VIA SPACETRACK.ORG API","18 SPCS","51110","STARLINK-3344","PAYLOAD","U","22005G","2022-08-30 11:01:32","331072","15.0883618","0.0001726","53.2169","307.7351","46.6228","313.4908","0","999","3566","-0.000063716","-0.00001302","0","3551754","0 STARLINK-3344","1 51110U 22005G   22242.45940198 -.00001302  00000-0 -63716-4 0  9994","2 51110  53.2169 307.7351 0001726  46.6228 313.4908 15.08836180 35664","2022-005G","51110","6917.892","95.438","540.951","538.563","0"
